{"type": "FeatureCollection", "features": [ {"type": "Feature", "properties": {"norad_id": 29795, "name": "FENGYUN 1C DEB", "group": "fengyun-1c-debris", "lat": -69.9748382549815, "lon": -74.89379888972032, "alt_km": 847.9934003507224, "timestamp": "2025-12-27T17:24:57.676628+00:00", "meta": {"OBJECT_NAME": "FENGYUN 1C DEB", "OBJECT_ID": "1999-025CM", "EPOCH": "2025-12-27T03:16:47.206272", "MEAN_MOTION": 13.929168, "ECCENTRICITY": 0.01112664, "INCLINATION": 98.8711, "RA_OF_ASC_NODE": 129.9144, "ARG_OF_PERICENTER": 236.423, "MEAN_ANOMALY": 303.1648, "EPHEMERIS_TYPE": 0, "CLASSIFICATION_TYPE": "U", "NORAD_CAT_ID": 29795, "ELEMENT_SET_NO": 999, "REV_AT_EPOCH": 96265, "BSTAR": 0.00016805131, "MEAN_MOTION_DOT": 1.87e-06, "MEAN_MOTION_DDOT": 0}, "tle": {"line1": "1 29795U 99025CM  25361.13665748  .00000187  00000+0  16805-3 0  9992", "line2": "2 29795  98.8711 129.9144 0111266 236.4230 303.1648 13.92916800962657"}}, "geometry": {"type": "Point", "coordinates": [-74.89379888972032, -69.9748382549815]}}, {"type": "Feature", "properties": {"norad_id": 29796, "name": "FENGYUN 1C DEB", "group": "fengyun-1c-debris", "lat": -22.246782373337616, "lon": -130.22587342897194, "alt_km": 821.4767819556846, "timestamp": "2025-12-27T17:24:57.676638+00:00", "meta": {"OBJECT_NAME": "FENGYUN 1C DEB", "OBJECT_ID": "1999-025CN", "EPOCH": "2025-12-27T09:45:48.275136", "MEAN_MOTION": 14.12371465, "ECCENTRICITY": 0.0052588, "INCLINATION": 98.8635, "RA_OF_ASC_NODE": 53.1184, "ARG_OF_PERICENTER": 226.1176, "MEAN_ANOMALY": 156.1859, "EPHEMERIS_TYPE": 0, "CLASSIFICATION_TYPE": "U", "NORAD_CAT_ID": 29796, "ELEMENT_SET_NO": 999, "REV_AT_EPOCH": 97268, "BSTAR": 0.00068095, "MEAN_MOTION_DOT": 1.227e-05, "MEAN_MOTION_DDOT": 0}, "tle": {"line1": "1 29796U 99025CN  25361.40680874  .00001227  00000+0  68095-3 0  9994", "line2": "2 29796  98.8635  53.1184 0052588 226.1176 156.1859 14.12371465972680"}}, "geometry": {"type": "Point", "coordinates": [-130.22587342897194, -22.246782373337616]}}, {"type": "Feature", "properties": {"norad_id": 29798, "name": "FENGYUN 1C DEB", "group": "fengyun-1c-debris", "lat": -56.38016910370271, "lon": -128.39827330650638, "alt_km": 820.8273924993446, "timestamp": "2025-12-27T17:24:57.676648+00:00", "meta": {"OBJECT_NAME": "FENGYUN 1C DEB", "OBJECT_ID": "1999-025CQ", "EPOCH": "2025-12-27T11:11:47.454144", "MEAN_MOTION": 13.99637005, "ECCENTRICITY": 0.0112216, "INCLINATION": 99.2949, "RA_OF_ASC_NODE": 65.5976, "ARG_OF_PERICENTER": 232.3956, "MEAN_ANOMALY": 139.9043, "EPHEMERIS_TYPE": 0, "CLASSIFICATION_TYPE": "U", "NORAD_CAT_ID": 29798, "ELEMENT_SET_NO": 999, "REV_AT_EPOCH": 96131, "BSTAR": 0.0018034, "MEAN_MOTION_DOT": 2.737e-05, "MEAN_MOTION_DDOT": 0}, "tle": {"line1": "1 29798U 99025CQ  25361.46652146  .00002737  00000+0  18034-2 0  9997", "line2": "2 29798  99.2949  65.5976 0112216 232.3956 139.9043 13.99637005961312"}}, "geometry": {"type": "Point", "coordinates": [-128.39827330650638, -56.38016910370271]}}, {"type": "Feature", "properties": {"norad_id": 29800, "name": "FENGYUN 1C DEB", "group": "fengyun-1c-debris", "lat": -9.608414437535394, "lon": 23.324756236620384, "alt_km": 996.5512300780956, "timestamp": "2025-12-27T17:24:57.676659+00:00", "meta": {"OBJECT_NAME": "FENGYUN 1C DEB", "OBJECT_ID": "1999-025CS", "EPOCH": "2025-12-25T12:58:14.687328", "MEAN_MOTION": 13.98631422, "ECCENTRICITY": 0.0133875, "INCLINATION": 98.291, "RA_OF_ASC_NODE": 19.933, "ARG_OF_PERICENTER": 191.628, "MEAN_ANOMALY": 321.744, "EPHEMERIS_TYPE": 0, "CLASSIFICATION_TYPE": "U", "NORAD_CAT_ID": 29800, "ELEMENT_SET_NO": 999, "REV_AT_EPOCH": 95755, "BSTAR": 0.0014898, "MEAN_MOTION_DOT": 2.271e-05, "MEAN_MOTION_DDOT": 0}, "tle": {"line1": "1 29800U 99025CS  25359.54044777  .00002271  00000+0  14898-2 0  9999", "line2": "2 29800  98.2910  19.9330 0133875 191.6280 321.7440 13.98631422957550"}}, "geometry": {"type": "Point", "coordinates": [23.324756236620384, -9.608414437535394]}}, {"type": "Feature", "properties": {"norad_id": 29801, "name": "FENGYUN 1C DEB", "group": "fengyun-1c-debris", "lat": 55.10542504031787, "lon": 95.87793129296706, "alt_km": 777.4129027302906, "timestamp": "2025-12-27T17:24:57.676669+00:00", "meta": {"OBJECT_NAME": "FENGYUN 1C DEB", "OBJECT_ID": "1999-025CT", "EPOCH": "2025-12-27T05:50:32.396064", "MEAN_MOTION": 14.35913046, "ECCENTRICITY": 0.0102985, "INCLINATION": 98.7951, "RA_OF_ASC_NODE": 262.561, "ARG_OF_PERICENTER": 224.164, "MEAN_ANOMALY": 289.4465, "EPHEMERIS_TYPE": 0, "CLASSIFICATION_TYPE": "U", "NORAD_CAT_ID": 29801, "ELEMENT_SET_NO": 999, "REV_AT_EPOCH": 99149, "BSTAR": 0.0001905, "MEAN_MOTION_DOT": 5.38e-06, "MEAN_MOTION_DDOT": 0}, "tle": {"line1": "1 29801U 99025CT  25361.24343051  .00000538  00000+0  19050-3 0  9997", "line2": "2 29801  98.7951 262.5610 0102985 224.1640 289.4465 14.35913046991493"}}, "geometry": {"type": "Point", "coordinates": [95.87793129296706, 55.10542504031787]}}, {"type": "Feature", "properties": {"norad_id": 29802, "name": "FENGYUN 1C DEB", "group": "fengyun-1c-debris", "lat": 76.49114709540287, "lon": -29.361200057013484, "alt_km": 703.1196030499768, "timestamp": "2025-12-27T17:24:57.676679+00:00", "meta": {"OBJECT_NAME": "FENGYUN 1C DEB", "OBJECT_ID": "1999-025CU", "EPOCH": "2025-12-27T05:45:02.019744", "MEAN_MOTION": 14.62702303, "ECCENTRICITY": 0.0037458, "INCLINATION": 98.6185, "RA_OF_ASC_NODE": 110.985, "ARG_OF_PERICENTER": 293.1146, "MEAN_ANOMALY": 129.2459, "EPHEMERIS_TYPE": 0, "CLASSIFICATION_TYPE": "U", "NORAD_CAT_ID": 29802, "ELEMENT_SET_NO": 999, "REV_AT_EPOCH": 98685, "BSTAR": 0.0031746, "MEAN_MOTION_DOT": 0.00016311, "MEAN_MOTION_DDOT": 0}, "tle": {"line1": "1 29802U 99025CU  25361.23960671  .00016311  00000+0  31746-2 0  9991", "line2": "2 29802  98.6185 110.9850 0037458 293.1146 129.2459 14.62702303986853"}}, "geometry": {"type": "Point", "coordinates": [-29.361200057013484, 76.49114709540287]}}, {"type": "Feature", "properties": {"norad_id": 29804, "name": "FENGYUN 1C DEB", "group": "fengyun-1c-debris", "lat": 4.919765571113455, "lon": -169.75649297074503, "alt_km": 873.7683827380724, "timestamp": "2025-12-27T17:24:57.676690+00:00", "meta": {"OBJECT_NAME": "FENGYUN 1C DEB", "OBJECT_ID": "1999-025CW", "EPOCH": "2025-12-27T12:11:15.633312", "MEAN_MOTION": 14.04323608, "ECCENTRICITY": 0.0097079, "INCLINATION": 98.8047, "RA_OF_ASC_NODE": 9.2679, "ARG_OF_PERICENTER": 260.1066, "MEAN_ANOMALY": 255.1726, "EPHEMERIS_TYPE": 0, "CLASSIFICATION_TYPE": "U", "NORAD_CAT_ID": 29804, "ELEMENT_SET_NO": 999, "REV_AT_EPOCH": 97101, "BSTAR": 2.4923e-05, "MEAN_MOTION_DOT": -2e-08, "MEAN_MOTION_DDOT": 0}, "tle": {"line1": "1 29804U 99025CW  25361.50781983 -.00000002  00000+0  24923-4 0  9992", "line2": "2 29804  98.8047   9.2679 0097079 260.1066 255.1726 14.04323608971014"}}, "geometry": {"type": "Point", "coordinates": [-169.75649297074503, 4.919765571113455]}}, {"type": "Feature", "properties": {"norad_id": 29805, "name": "FENGYUN 1C DEB", "group": "fengyun-1c-debris", "lat": 68.15480174799708, "lon": 28.248771086786316, "alt_km": 1051.8466222538273, "timestamp": "2025-12-27T17:24:57.676700+00:00", "meta": {"OBJECT_NAME": "FENGYUN 1C DEB", "OBJECT_ID": "1999-025CX", "EPOCH": "2025-12-27T03:04:08.587488", "MEAN_MOTION": 13.72662352, "ECCENTRICITY": 0.01885173, "INCLINATION": 99.4531, "RA_OF_ASC_NODE": 52.215, "ARG_OF_PERICENTER": 192.2892, "MEAN_ANOMALY": 167.3624, "EPHEMERIS_TYPE": 0, "CLASSIFICATION_TYPE": "U", "NORAD_CAT_ID": 29805, "ELEMENT_SET_NO": 999, "REV_AT_EPOCH": 94900, "BSTAR": 0.00017011456, "MEAN_MOTION_DOT": 1.33e-06, "MEAN_MOTION_DDOT": 0}, "tle": {"line1": "1 29805U 99025CX  25361.12787717  .00000133  00000+0  17011-3 0  9995", "line2": "2 29805  99.4531  52.2150 0188517 192.2892 167.3624 13.72662352949003"}}, "geometry": {"type": "Point", "coordinates": [28.248771086786316, 68.15480174799708]}}, {"type": "Feature", "properties": {"norad_id": 29806, "name": "FENGYUN 1C DEB", "group": "fengyun-1c-debris", "lat": -57.92667935372445, "lon": -177.074571458741, "alt_km": 841.9872696249713, "timestamp": "2025-12-27T17:24:57.676710+00:00", "meta": {"OBJECT_NAME": "FENGYUN 1C DEB", "OBJECT_ID": "1999-025CY", "EPOCH": "2025-12-25T23:44:59.531424", "MEAN_MOTION": 14.1203138, "ECCENTRICITY": 0.002802, "INCLINATION": 98.7123, "RA_OF_ASC_NODE": 15.4026, "ARG_OF_PERICENTER": 213.4796, "MEAN_ANOMALY": 205.1423, "EPHEMERIS_TYPE": 0, "CLASSIFICATION_TYPE": "U", "NORAD_CAT_ID": 29806, "ELEMENT_SET_NO": 999, "REV_AT_EPOCH": 97326, "BSTAR": 0.00051177, "MEAN_MOTION_DOT": 8.98e-06, "MEAN_MOTION_DDOT": 0}, "tle": {"line1": "1 29806U 99025CY  25359.98957791  .00000898  00000+0  51177-3 0  9997", "line2": "2 29806  98.7123  15.4026 0028020 213.4796 205.1423 14.12031380973266"}}, "geometry": {"type": "Point", "coordinates": [-177.074571458741, -57.92667935372445]}}, {"type": "Feature", "properties": {"norad_id": 29807, "name": "FENGYUN 1C DEB", "group": "fengyun-1c-debris", "lat": 57.4684724901848, "lon": -160.10760460032435, "alt_km": 914.309795375636, "timestamp": "2025-12-27T17:24:57.676721+00:00", "meta": {"OBJECT_NAME": "FENGYUN 1C DEB", "OBJECT_ID": "1999-025CZ", "EPOCH": "2025-12-27T11:43:21.857088", "MEAN_MOTION": 14.08671651, "ECCENTRICITY": 0.0079054, "INCLINATION": 98.7548, "RA_OF_ASC_NODE": 5.6816, "ARG_OF_PERICENTER": 289.9099, "MEAN_ANOMALY": 69.3566, "EPHEMERIS_TYPE": 0, "CLASSIFICATION_TYPE": "U", "NORAD_CAT_ID": 29807, "ELEMENT_SET_NO": 999, "REV_AT_EPOCH": 97302, "BSTAR": 0.00023294, "MEAN_MOTION_DOT": 3.69e-06, "MEAN_MOTION_DDOT": 0}, "tle": {"line1": "1 29807U 99025CZ  25361.48844742  .00000369  00000+0  23294-3 0  9999", "line2": "2 29807  98.7548   5.6816 0079054 289.9099  69.3566 14.08671651973021"}}, "geometry": {"type": "Point", "coordinates": [-160.10760460032435, 57.4684724901848]}}]}